[{"OBJECT_NAME":"SKYSAT-C6","OBJECT_ID":"2017-068F","EPOCH":"2026-03-09T21:33:49.392576","MEAN_MOTION":15.32504544,"ECCENTRICITY":0.00036369,"INCLINATION":97.44,"RA_OF_ASC_NODE":205.7173,"ARG_OF_PERICENTER":127.5085,"MEAN_ANOMALY":232.6488,"EPHEMERIS_TYPE":0,"CLASSIFICATION_TYPE":"U","NORAD_CAT_ID":42992,"ELEMENT_SET_NO":999,"REV_AT_EPOCH":46710,"BSTAR":0.00039699196,"MEAN_MOTION_DOT":0.0001239,"MEAN_MOTION_DDOT":0},{"OBJECT_NAME":"STARLINK-2655","OBJECT_ID":"2021-040X","EPOCH":"2026-03-09T13:34:27.715584","MEAN_MOTION":15.3019658,"ECCENTRICITY":0.0001428,"INCLINATION":53.1635,"RA_OF_ASC_NODE":178.7122,"ARG_OF_PERICENTER":91.6237,"MEAN_ANOMALY":268.4927,"EPHEMERIS_TYPE":0,"CLASSIFICATION_TYPE":"U","NORAD_CAT_ID":48449,"ELEMENT_SET_NO":999,"REV_AT_EPOCH":26666,"BSTAR":-2.498e-6,"MEAN_MOTION_DOT":-4.33e-6,"MEAN_MOTION_DDOT":0}]
